O3B FM5                 
1 39188U 13031A   22258.42794206 -.00000028  00000+0  00000+0 0  9999
2 39188   0.0610  18.5923 0002598 159.3009 182.1092  5.00115335168468
O3B FM4                 
1 39189U 13031B   22258.28408032 -.00000028  00000+0  00000+0 0  9993
2 39189   0.0534 351.4737 0002556 186.0091 182.5197  5.00115858168479
O3B FM2                 
1 39190U 13031C   22258.37549675 -.00000028  00000+0  00000+0 0  9994
2 39190   0.0545 346.2081 0002583 190.1805 183.6145  5.00116869168520
O3B PFM                 
1 39191U 13031D   22258.20190210 -.00000028  00000+0  00000+0 0  9994
2 39191   0.0558  11.3752 0002642 163.5163 185.1124  5.00115699168082
O3B FM3                 
1 40079U 14038A   22255.65809308 -.00000028  00000+0  00000+0 0  9990
2 40079   0.0548 359.6357 0004939 160.8687 199.5145  5.00115348149418
O3B FM7                 
1 40080U 14038B   22257.80296098 -.00000028  00000+0  00000+0 0  9997
2 40080   0.0577 356.2023 0001574 222.9370 140.8504  5.00115501149279
O3B FM6                 
1 40081U 14038C   22258.22911948 -.00000028  00000+0  00000+0 0  9993
2 40081   0.0539 358.8398 0002691 176.3623 184.8016  5.00115376149237
O3B FM8                 
1 40082U 14038D   22258.28304758 -.00000028  00000+0  00000+0 0  9995
2 40082   0.0525 355.8256 0002645 176.4850 187.6946  5.00115672149361
O3B FM10                
1 40348U 14083A   22258.30910174 -.00000028  00000+0  00000+0 0  9998
2 40348   0.0515   8.3097 0002626 166.1596 185.5349  5.00115153141315
O3B FM11                
1 40349U 14083B   22256.12376100 -.00000028  00000+0  00000+0 0  9992
2 40349   0.0561   8.0920 0002451 179.8185 172.0859  5.00115389141228
O3B FM12                
1 40350U 14083C   22258.34976547 -.00000028  00000+0  00000+0 0  9991
2 40350   0.0556   7.2744 0002741 171.0138 181.7140  5.00115276141341
O3B FM9                 
1 40351U 14083D   22258.37666202 -.00000028  00000+0  00000+0 0  9999
2 40351   0.0573   8.2754 0002587 168.5011 183.2264  5.00116210141491
DIAMOND RED             
1 42783U 17036U   22258.36018711  .00011779  00000+0  42319-3 0  9993
2 42783  97.1920 296.1021 0010476  20.9494 339.2174 15.28746254290678
DIAMOND GREEN           
1 42785U 17036W   22258.09900316  .00011466  00000+0  41234-3 0  9994
2 42785  97.1923 295.9130 0010323  23.6429 336.5284 15.28723784290709
DIAMOND BLUE            
1 42786U 17036X   22258.09804209  .00011241  00000+0  40438-3 0  9995
2 42786  97.1923 295.9040 0010385  24.0972 336.0752 15.28718922290709
LEO VANTAGE 1           
1 43113U 18004C   22258.22402244  .00001957  00000+0  16390-3 0  9997
2 43113  99.2440 347.8396 0399646 281.6432  74.0177 14.54107138237287
O3B FM15                
1 43231U 18024A   22257.84292755 -.00000028  00000+0  00000+0 0  9997
2 43231   0.0481   9.1011 0002914 167.6600 183.2418  5.00116016 82425
O3B FM16                
1 43232U 18024B   22258.29609654 -.00000028  00000+0  00000+0 0  9998
2 43232   0.0444  11.3706 0002893 166.3124 182.3196  5.00115897 82366
O3B FM14                
1 43233U 18024C   22258.33573067 -.00000028  00000+0  00000+0 0  9992
2 43233   0.0428  11.4566 0002731 168.3013 180.2434  5.00115338 82377
O3B FM13                
1 43234U 18024D   22258.38924083 -.00000028  00000+0  00000+0 0  9996
2 43234   0.0571  30.9727 0003678 152.9948 176.0309  5.00115055 82481
O3B FM20                
1 44112U 19020A   22258.36244210 -.00000028  00000+0  00000+0 0  9994
2 44112   0.0512   7.6132 0003042 176.3900 175.9956  5.00115468 62994
O3B FM19                
1 44113U 19020B   22258.38924102 -.00000028  00000+0  00000+0 0  9992
2 44113   0.0690  22.4708 0001524 171.5856 165.9406  5.00115129 62854
O3B FM17                
1 44114U 19020C   22258.26986126 -.00000028  00000+0  00000+0 0  9994
2 44114   0.0376 348.8924 0003036 188.8170 182.2932  5.00115583 62941
O3B FM18                
1 44115U 19020D   22258.41627152 -.00000028  00000+0  00000+0 0  9993
2 44115   0.0515   7.8948 0002871 166.7888 185.3206  5.00115771 63074
SALSAT                  
1 46495U 20068K   22258.40565479  .00003458  00000+0  24864-3 0  9999
2 46495  97.7331 199.7727 0015808 338.0809  21.9739 15.04837581107714
